OPTICUBE 04             
1 41851U 16067D   18222.21050968  .00000141  00000-0  17648-4 0  9991
2 41851  97.9241 311.0231 0008707 356.6456   3.4706 14.96693678 95172
AEROCUBE 8D             
1 41852U 16067E   18221.91916350  .00000411  00000-0  41523-4 0  9993
2 41852  97.9246 310.5662 0009222 355.1508   4.9622 14.96523045 95112
AEROCUBE 8C             
1 41853U 16067F   18222.20206623  .00000610  00000-0  59032-4 0  9997
2 41853  97.9252 310.8120 0009699 356.5789   3.5364 14.96491696 95154
PROMETHEUS 2-1          
1 41854U 16067G   18222.20446381  .00000640  00000-0  61437-4 0  9990
2 41854  97.9259 310.8370 0010000 356.1337   3.9805 14.96611902 95150
PROMETHEUS 2-3          
1 41855U 16067H   18222.47459709  .00000483  00000-0  47715-4 0  9996
2 41855  97.9262 311.1164 0010210 355.2761   4.8362 14.96611082 95195
ITF-2                   
1 41932U 98067KU  18222.44651132  .00034179  00000-0  18417-3 0  9998
2 41932  51.6309  60.4802 0002598  67.2324 292.8951 15.79839299 89334
WASEDA-SAT3             
1 41933U 98067KV  18221.94413893  .00081993  00000-0  26155-3 0  9997
2 41933  51.6315  52.4143 0000386 326.2401  33.8580 15.90390570 89392
AOBA-VELOX 3            
1 41935U 98067KX  18222.54459044  .00057831  00000-0  23229-3 0  9997
2 41935  51.6333  53.5601 0001215  64.3607 295.7523 15.85877279 89537
INS-1B                  
1 41954U 17008G   18222.25921865  .00000954  00000-0  43362-4 0  9992
2 41954  97.4423 285.7629 0010130 154.6599 205.5136 15.23134009 82232
BGUSAT                  
1 41999U 17008BD  18221.64975421  .00001475  00000-0  62376-4 0  9995
2 41999  97.4471 286.3806 0008685 171.5241 188.6145 15.24787532 81575
DIDO-2                  
1 42000U 17008BE  18222.45758988  .00000718  00000-0  33243-4 0  9996
2 42000  97.4439 286.4178 0008852 170.8950 189.2449 15.23292949 81667
PEASSS                  
1 42015U 17008BV  18221.94722860  .00000826  00000-0  36939-4 0  9990
2 42015  97.4438 286.4335 0006542 175.9151 184.2141 15.24120947 82103
AL-FARABI 1             
1 42016U 17008BW  18222.18729721  .00001077  00000-0  46644-4 0  9994
2 42016  97.4447 286.9101 0006449 174.7342 185.3965 15.24563868 82272
NAYIF-1 (EO-88)         
1 42017U 17008BX  18222.11504847  .00001066  00000-0  46163-4 0  9992
2 42017  97.4444 286.8454 0006426 175.2114 184.9186 15.24588325 82284
HAVELSAT                
1 42700U 98067LH  18222.47994380  .00025701  00000-0  18071-3 0  9997
2 42700  51.6350  76.5360 0003984 106.2512 253.8925 15.73955761 70564
CXBN-2                  
1 42704U 98067LM  18222.00857710  .00025280  00000-0  18151-3 0  9996
2 42704  51.6360  80.1634 0001462  59.8690 300.2454 15.73480984 70398
ICECUBE                 
1 42705U 98067LN  18222.54127276  .00093592  00000-0  35039-3 0  9998
2 42705  51.6447  65.0311 0000562   4.6182 355.4828 15.87135572 70700
PHOENIX                 
1 42706U 98067LP  18222.14063776  .00017337  00000-0  13902-3 0  9997
2 42706  51.6355  81.0471 0001290  70.1847 289.9290 15.71133321 70380
X-CUBESAT               
1 42707U 98067LQ  18222.18348794  .00029064  00000-0  19686-3 0  9993
2 42707  51.6308  77.4659 0001057  83.5205 276.5914 15.74756961 70427
QBEE50-LTU-OC           
1 42708U 98067LR  18222.16353041  .00027639  00000-0  19615-3 0  9991
2 42708  51.6361  78.9263 0001200  85.7881 274.3255 15.73699022 70368
ALTAIR PATHFINDER       
1 42711U 98067LS  18222.21176646  .00010327  00000-0  10573-3 0  9995
2 42711  51.6361  89.8078 0003552  37.3971 322.7271 15.65648548 69937
SHARC                   
1 42712U 98067LT  18222.26783188  .00018545  00000-0  17994-3 0  9990
2 42712  51.6376  90.9976 0002346  58.4867 301.6358 15.66395743 70168
ZA-AEROSAT              
1 42713U 98067LU  18222.47133380  .00017185  00000-0  14618-3 0  9996
2 42713  51.6346  82.4955 0001849  41.9797 318.1342 15.69711670 70053
LINK                    
1 42714U 98067LV  18222.56891193  .00105616  00000-0  35892-3 0  9994
2 42714  51.6213  64.0405 0001733 267.2713  92.8094 15.89039667 70417
CSUNSAT 1               
1 42715U 98067LW  18222.14737731  .00018866  00000-0  15454-3 0  9998
2 42715  51.6352  83.3534 0003080  33.0986 327.0203 15.70547629 70010
SPACECUBE               
1 42717U 98067LY  18222.06704802  .00025962  00000-0  18593-3 0  9996
2 42717  51.6323  79.7409 0002846 103.1615 256.9701 15.73522571 69425
HOOPOE                  
1 42718U 98067LZ  18222.18188694  .00039013  00000-0  23561-3 0  9998
2 42718  51.6289  75.2376 0002227 101.9706 258.1544 15.77227011 69492
CHALLENGER              
1 42721U 98067MA  18222.51387949  .01888375  11908-4  78173-3 0  9999
2 42721  51.6159  53.7266 0013684 284.8668  75.0835 16.22172616 69500
NJUST-1                 
1 42722U 98067MB  18222.50303897  .00015287  00000-0  13625-3 0  9990
2 42722  51.6356  84.2377 0005402  82.7584 277.4027 15.68665037 69103
UNSW-ECO                
1 42723U 98067MC  18222.02367761  .00043259  00000-0  24739-3 0  9996
2 42723  51.6380  75.7467 0003583  96.7443 263.3965 15.78399750 69150
LILACSAT-1              
1 42725U 98067ME  18222.51229484  .00021913  00000-0  16984-3 0  9997
2 42725  51.6354  80.5311 0004151  88.7077 271.4396 15.71760250 69058
NSIGHT-1                
1 42726U 98067MF  18222.50575752  .00005206  00000-0  63754-4 0  9994
2 42726  51.6389  93.3486 0005729  80.6165 279.5476 15.62270446 68895
SNUSAT-1                
1 42727U 98067MG  18222.46147359  .00021040  00000-0  16347-3 0  9997
2 42727  51.6334  80.8764 0005184  52.5526 307.5943 15.71726806 69012
I-INSPIRE II            
1 42731U 98067ML  18222.18419705  .00048993  00000-0  26928-3 0  9990
2 42731  51.6355  73.7230 0002869  35.7775 324.3418 15.79229701 68973
POLYITAN-2-SAU          
1 42732U 98067MM  18222.13300287  .00029263  00000-0  20041-3 0  9999
2 42732  51.6351  78.6844 0004372  39.9058 320.2262 15.74488358 68901
SNUSAT-1B               
1 42733U 98067MN  18222.46883091  .00023184  00000-0  17288-3 0  9990
2 42733  51.6339  79.4558 0004451  42.0050 318.1289 15.72638769 68922
EXALTA-1                
1 42734U 98067MP  18222.19909138  .00056257  00000-0  29311-3 0  9999
2 42734  51.6279  72.9937 0003786  75.2439 284.8982 15.80344735 68930
BEEAGLESAT              
1 42736U 98067MR  18222.20198592  .00020160  00000-0  16263-3 0  9993
2 42736  51.6344  82.9286 0005248  81.0687 279.0905 15.70857500 68915
UCLSAT                  
1 42765U 17036A   18221.79426940  .00000838  00000-0  39761-4 0  9995
2 42765  97.3967 280.7705 0010224 245.0559 114.9615 15.21967386 62862
LITUANICASAT-2          
1 42768U 17036D   18222.39318443  .00001415  00000-0  65737-4 0  9997
2 42768  97.3986 280.9362 0014325 232.2966 127.6971 15.21559353 62804
AALTO-1                 
1 42775U 17036L   18222.11837426  .00000522  00000-0  26738-4 0  9998
2 42775  97.3960 280.4821 0012881 231.4931 128.5150 15.20827437 62693
URSA MAIOR              
1 42776U 17036M   18221.70727923  .00000583  00000-0  29417-4 0  9997
2 42776  97.3967 280.1411 0012685 233.1452 126.8621 15.20913213 62638
COMPASS 2               
1 42777U 17036N   18221.73195420  .00001093  00000-0  51051-4 0  9998
2 42777  97.3991 280.6429 0011492 235.8359 124.1788 15.21883966 62659
DIAMOND RED             
1 42783U 17036U   18221.74156286  .00000691  00000-0  33696-4 0  9991
2 42783  97.3970 280.5437 0010833 245.5117 114.4990 15.21558197 62651
PEGASUS                 
1 42784U 17036V   18221.70698352  .00000778  00000-0  37327-4 0  9994
2 42784  97.3971 280.5973 0010764 245.6197 114.3916 15.21772023 62653
DIAMOND GREEN           
1 42785U 17036W   18221.74035900  .00000687  00000-0  33539-4 0  9993
2 42785  97.3972 280.5574 0010729 246.1793 113.8319 15.21560864 62649
DIAMOND BLUE            
1 42786U 17036X   18222.39716756  .00000716  00000-0  34806-4 0  9992
2 42786  97.3970 281.2027 0010592 243.7518 116.2629 15.21561218 62741
NUDTSAT                 
1 42787U 17036Y   18222.45863491  .00001168  00000-0  53554-4 0  9992
2 42787  97.3979 281.5920 0010346 241.5991 118.4203 15.22397610 62627
SUCHAI                  
1 42788U 17036Z   18221.91742774  .00000911  00000-0  42828-4 0  9990
2 42788  97.3972 280.9259 0010376 244.3144 115.7021 15.22059285 62769
SKCUBE                  
1 42789U 17036AA  18221.78683569  .00000857  00000-0  40553-4 0  9994
2 42789  97.3970 280.7873 0010214 244.8863 115.1314 15.22013628 62661
VZLUSAT-1               
1 42790U 17036AB  18221.92143921  .00001136  00000-0  52120-4 0  9999
2 42790  97.3975 281.0703 0009855 243.9980 116.0241 15.22413442 62693
ROBUSTA-1B              
1 42792U 17036AD  18222.14482550  .00000908  00000-0  42578-4 0  9992
2 42792  97.3969 281.2128 0009793 244.3378 115.6847 15.22163035 62730
CICERO 6                
1 42793U 17036AE  18221.94816494  .00000656  00000-0  31805-4 0  9999
2 42793  97.3961 280.9958 0008927 246.5146 113.5153 15.21969181 62771
D-SAT                   
1 42794U 17036AF  18222.13930574  .00000192  00000-0  21958-4 0  9991
2 42794  97.5871 274.7452 0128594 102.6165 258.9469 14.90904561 61768
TOKI                    
1 42820U 98067MU  18221.98540603  .00018650  00000-0  15707-3 0  9998
2 42820  51.6347  86.7448 0002150  26.2520 333.8586 15.69886378 62304
MAZAALAI (NUMSAT-1)     
1 42822U 98067MW  18222.09323428  .00018733  00000-0  15991-3 0  9994
2 42822  51.6349  86.7228 0002251  33.3519 326.7619 15.69554275 62297
BRAC ONNESHA            
1 42823U 98067MX  18221.63977565  .00019198  00000-0  16292-3 0  9992
2 42823  51.6355  88.9653 0004502  43.3131 316.8219 15.69671968 62221
NIGERIAEDUSAT-1         
1 42824U 98067MY  18221.67172261  .00018071  00000-0  15526-3 0  9995
2 42824  51.6362  89.1987 0004488  43.1235 317.0113 15.69420146 62247
CORVUS BC2              
1 42846U 17042X   18222.20046194  .00000242  00000-0  29291-4 0  9994
2 42846  97.5918 123.1107 0010292  25.1822 334.9897 14.91840371 58424
